43249,IRIDIUM 144,2018,100.4,860.0,+,86.4,Active,1,LEO,USA,USA,Commercial/Government,Communications,Falcon,1 43249U 18030A   24208.87110363  .00000019  00000+0 -40917-6 0  9996,2 43249  86.3967 218.8810 0002223  83.5071 276.6378 14.34217111331195,14.34217111,0.0002223,LEO
43250,IRIDIUM 149,2018,100.4,860.0,+,86.4,Active,1,LEO,USA,USA,Commercial/Government,Communications,Falcon,1 43250U 18030B   24208.73791005  .00000027  00000+0  24875-5 0  9993,2 43250  86.3960 218.9112 0002171  85.6465 274.4979 14.34217494331195,14.34217494,0.0002171,LEO
43251,IRIDIUM 157,2018,100.4,860.0,+,86.4,Active,1,LEO,USA,USA,Commercial/Government,Communications,Falcon,1 43251U 18030C   24208.96624332  .00000002  00000+0 -62772-5 0  9999,2 43251  86.3967 218.8536 0001997  97.4421 262.7001 14.34217398331201,14.34217398,0.0001997,LEO
43252,IRIDIUM 140,2018,100.4,860.0,+,86.4,Active,1,LEO,USA,USA,Commercial/Government,Communications,Falcon,1 43252U 18030D   24208.77596644  .00000005  00000+0 -53627-5 0  9995,2 43252  86.3968 218.9476 0002465  84.3005 275.8472 14.34217430331238,14.3421743,0.0002465,LEO
43253,IRIDIUM 145,2018,100.4,860.0,+,86.4,Active,1,LEO,USA,USA,Commercial/Government,Communications,Falcon,1 43253U 18030E   24208.90281731  .00000074  00000+0  19354-4 0  9992,2 43253  86.3962 218.8680 0002190  79.3434 280.8008 14.34217968331185,14.34217968,0.000219,LEO
43254,IRIDIUM 146,2018,100.4,860.0,+,86.4,Active,1,LEO,USA,USA,Commercial/Government,Communications,Falcon,1 43254U 18030F   24208.74425551  .00000229  00000+0  74704-4 0  9997,2 43254  86.3961 218.9490 0002264  85.5786 274.5669 14.34217551331176,14.34217551,0.0002264,LEO
43255,IRIDIUM 148,2018,100.4,860.0,+,86.4,Active,1,LEO,USA,USA,Commercial/Government,Communications,Falcon,1 43255U 18030G   24208.78230803  .00000009  00000+0 -38276-5 0  9998,2 43255  86.3968 218.9656 0002037  91.5183 268.6246 14.34217418331216,14.34217418,0.0002037,LEO
43256,IRIDIUM 142,2018,100.4,860.0,+,86.4,Active,1,LEO,USA,USA,Commercial/Government,Communications,Falcon,1 43256U 18030H   24208.95990145  .00000187  00000+0  59779-4 0  9996,2 43256  86.3959 218.8056 0002184  81.7282 278.4162 14.34218820331207,14.3421882,0.0002184,LEO
